{"695187520": {"website": "http://www.burtonbridgeinn.co.uk/", "microbrewery": "yes", "name": "Burton Bridge Inn", "point": {"lat": "52.8067094947484)", "lng": "-1.62524259977377"}, "amenity": "pub", "osm_id": 695187520, "type": "node"}, "1512631426": {"addr:housenumber": "29", "microbrewery": "yes", "name": "Green Dragon", "point": {"lat": "52.4578329947551)", "lng": "1.43492869980026"}, "amenity": "pub", "osm_id": 1512631426, "type": "node"}, "357708651": {"addr:housenumber": "18", "website": "http://www.brewerytapleeds.co.uk/", "amenity": "pub", "name": "The Brewery Tap", "point": {"lat": "53.7951337947326)", "lng": "-1.5452227997849"}, "microbrewery": "yes", "osm_id": 357708651, "type": "node"}, "137070597": {"microbrewery": "yes", "name": "The Duke William", "point": {"lat": "52.4579579508043)", "lng": "-2.14626807365743"}, "amenity": "pub", "osm_id": 137070597, "type": "way"}, "1322466950": {"amenity": "former_pub", "osm_id": 1322466950, "type": "node", "microbrewery": "yes", "point": {"lat": "53.0226039947445)", "lng": "-1.43282549980055"}}, "297116940": {"microbrewery": "yes", "name": "The Chequers", "point": {"lat": "52.1805741947609)", "lng": "-0.140137299980493"}, "amenity": "pub", "osm_id": 297116940, "type": "node"}, "55121165": {"website": "http://www.everards.co.uk/pubs/brunswick_inn_24/", "microbrewery": "yes", "name": "The Brunswick", "point": {"lat": "52.9182823477952)", "lng": "-1.46409966913694"}, "amenity": "pub", "osm_id": 55121165, "type": "way"}, "528287891": {"microbrewery": "yes", "name": "Franciscan Well", "point": {"lat": "51.9011370947671)", "lng": "-8.48202339881929"}, "amenity": "pub", "osm_id": 528287891, "type": "node"}, "289778581": {"microbrewery": "yes", "name": "The Watermill", "point": {"lat": "54.3803318947254)", "lng": "-2.85554419960251"}, "amenity": "pub", "osm_id": 289778581, "type": "node"}, "137381657": {"addr:housenumber": "98-100", "microbrewery": "yes", "name": "The Fat Cat Brewery Tap", "point": {"lat": "52.643405994615)", "lng": "1.30034519231916"}, "amenity": "pub", "craft": "brewery", "osm_id": 137381657, "type": "way"}, "559240985": {"website": "http://www.sarahhughesbrewery.co.uk/", "microbrewery": "yes", "name": "Beacon Hotel", "point": {"lat": "52.5437814947534)", "lng": "-2.11471009970563"}, "amenity": "pub", "osm_id": 559240985, "type": "node"}, "812411807": {"addr:housenumber": "53", "website": "http://www.zerodegrees.co.uk/location-bristol.html", "amenity": "bar", "name": "Zero Degrees", "point": {"lat": "51.4563936947776)", "lng": "-2.59784189963838"}, "microbrewery": "yes", "osm_id": 812411807, "type": "node"}, "233186722": {"microbrewery": "yes", "name": "The Globe", "point": {"lat": "53.4435676947376)", "lng": "-1.95674229972762"}, "amenity": "pub", "osm_id": 233186722, "type": "node"}, "371094435": {"microbrewery": "yes", "name": "The Clockwork Bar", "point": {"lat": "55.8231349947153)", "lng": "-4.25865409940719"}, "amenity": "pub", "osm_id": 371094435, "type": "node"}, "130467750": {"microbrewery": "yes", "name": "The Rowditch Inn", "point": {"lat": "52.9186359178793)", "lng": "-1.49824957499911"}, "amenity": "pub", "osm_id": 130467750, "type": "way"}, "771254439": {"microbrewery": "yes", "name": "The Mason's Arms", "point": {"lat": "50.939887294791)", "lng": "-2.69879839962432"}, "amenity": "pub", "osm_id": 771254439, "type": "node"}, "304814504": {"microbrewery": "yes", "name": "Old Poet's Corner", "point": {"lat": "53.1629583947422)", "lng": "-1.48046429979392"}, "amenity": "pub", "osm_id": 304814504, "type": "node"}, "1038815836": {"microbrewery": "yes", "name": "Noble House", "point": {"lat": "51.4771581947771)", "lng": "-3.18040159955729"}, "amenity": "restaurant", "osm_id": 1038815836, "type": "node"}, "698649133": {"addr:housenumber": "45", "website": "http://www.porterhousebrewco.com/central.html", "amenity": "pub", "name": "Porterhouse Central", "point": {"lat": "53.3429943947393)", "lng": "-6.25887299912876"}, "microbrewery": "yes", "osm_id": 698649133, "type": "node"}, "95037872": {"microbrewery": "yes", "name": "Zero Degrees", "point": {"lat": "51.4790636920195)", "lng": "-3.17961821818664"}, "amenity": "bar", "osm_id": 95037872, "type": "way"}, "55070258": {"website": "http://www.falstaffbrewery.co.uk/", "microbrewery": "yes", "name": "The Falstaff", "point": {"lat": "52.9105152617238)", "lng": "-1.48013991072366"}, "amenity": "pub", "osm_id": 55070258, "type": "way"}, "90236857": {"microbrewery": "yes", "name": "The Volunteer", "point": {"lat": "52.2035292976297)", "lng": "1.57443099835503"}, "amenity": "pub", "osm_id": 90236857, "type": "way"}, "248102331": {"microbrewery": "yes", "name": "WEST Beer", "point": {"lat": "55.8509198947152)", "lng": "-4.23388109941064"}, "amenity": "pub", "osm_id": 248102331, "type": "node"}, "422925500": {"microbrewery": "yes", "name": "White Hart", "point": {"lat": "51.8923165947672)", "lng": "0.41271579994255"}, "amenity": "pub", "osm_id": 422925500, "type": "node"}, "81601344": {"microbrewery": "yes", "name": "The Yew Tree", "point": {"lat": "52.5158641639417)", "lng": "-1.87995320073708"}, "amenity": "pub", "osm_id": 81601344, "type": "way"}, "1503630274": {"microbrewery": "yes", "osm_id": 1503630274, "type": "node", "name": "Craddock's Brewery", "point": {"lat": "52.4579074947551)", "lng": "-2.14628679970123"}}, "269704778": {"website": "http://www.roadsidetavern.ie/", "microbrewery": "yes", "name": "The Roadside Tavern", "point": {"lat": "53.0283983947444)", "lng": "-9.29095849870672"}, "amenity": "pub", "osm_id": 269704778, "type": "node"}, "107108811": {"website": "http://www.moulininn.co.uk/moulin_brewery/", "microbrewery": "yes", "name": "Moulin Inn & Brewery", "point": {"lat": "56.7130613804317)", "lng": "-3.72683182034157"}, "amenity": "pub", "osm_id": 107108811, "type": "way"}, "746858253": {"microbrewery": "yes", "name": "Black Bull Inn", "point": {"lat": "54.3692839947256)", "lng": "-3.07604829957181"}, "amenity": "pub", "osm_id": 746858253, "type": "node"}, "82106192": {"microbrewery": "yes", "name": "Cap'n'Gown", "point": {"lat": "52.5124385985576)", "lng": "-1.88606603681632"}, "amenity": "pub", "osm_id": 82106192, "type": "way"}, "606400849": {"website": "www.mrgrundystavern.info", "microbrewery": "yes", "name": "Mr Grundy's Tavern", "point": {"lat": "52.9259125947462)", "lng": "-1.49289889979219"}, "amenity": "pub", "osm_id": 606400849, "type": "node"}, "1503269842": {"microbrewery": "yes", "osm_id": 1503269842, "type": "node", "name": "Weatheroak Hill Brewery", "point": {"lat": "52.364781394757)", "lng": "-1.91826959973297"}}, "1407192739": {"website": "http://www.theblackhorseelton.co.uk/", "microbrewery": "yes", "name": "Black Horse Inn", "point": {"lat": "52.5282805947537)", "lng": "-0.395770599944909"}, "amenity": "pub", "osm_id": 1407192739, "type": "node"}, "151406549": {"microbrewery": "yes", "name": "The Fox and Newt", "point": {"lat": "53.7999773947325)", "lng": "-1.55947769978292"}, "amenity": "pub", "osm_id": 151406549, "type": "node"}, "277969878": {"microbrewery": "yes", "name": "Porterhouse", "point": {"lat": "53.3449997947392)", "lng": "-6.26743969912756"}, "amenity": "pub", "osm_id": 277969878, "type": "node"}, "232042456": {"microbrewery": "yes", "name": "Messrs Maguire", "point": {"lat": "53.3469695947392)", "lng": "-6.25816239912886"}, "amenity": "pub", "osm_id": 232042456, "type": "node"}, "616277339": {"microbrewery": "yes", "name": "The Gate", "point": {"lat": "51.814200394769)", "lng": "0.147661599979445"}, "amenity": "pub", "osm_id": 616277339, "type": "node"}, "1503266383": {"microbrewery": "yes", "osm_id": 1503266383, "type": "node", "name": "Tunnel Brewery", "point": {"lat": "52.5190298947539)", "lng": "-1.55698669978327"}}, "114393180": {"website": "http://www.callowtop.co.uk/", "microbrewery": "yes", "name": "Callow Top Holiday Park", "point": {"lat": "53.0250828703804)", "lng": "-1.74718353354914"}, "osm_id": 114393180, "type": "way"}, "289120349": {"microbrewery": "yes", "name": "The Old Cannon Brewery", "point": {"lat": "52.2496133947594)", "lng": "0.714691399900514"}, "amenity": "pub", "osm_id": 289120349, "type": "node"}, "172985055": {"website": "http://www.oakham-ales.co.uk/brewerytap/btwelcome.asp", "microbrewery": "yes", "name": "The Brewery Tap", "point": {"lat": "52.5759455947528)", "lng": "-0.247552299965541"}, "amenity": "pub", "osm_id": 172985055, "type": "node"}, "803021280": {"microbrewery": "yes", "name": "The Corner Pin", "point": {"lat": "53.0593972947439)", "lng": "-1.32479239981559"}, "amenity": "pub", "osm_id": 803021280, "type": "node"}, "1512132834": {"website": "http://www.bankesarms.com/micro.html", "microbrewery": "yes", "name": "Isle of Purbeck Brewery", "point": {"lat": "50.6420252947993)", "lng": "-1.94761079972889"}, "craft": "brewery", "osm_id": 1512132834, "type": "node"}, "631547323": {"microbrewery": "yes", "name": "Oslo", "point": {"lat": "53.2597970947406)", "lng": "-9.0762465987366"}, "amenity": "pub", "osm_id": 631547323, "type": "node"}, "110816572": {"microbrewery": "yes", "name": "Willys", "point": {"lat": "53.556646510041)", "lng": "-0.0233437613702817"}, "amenity": "pub", "osm_id": 110816572, "type": "way"}, "59276138": {"microbrewery": "yes", "name": "The Old School House", "point": {"lat": "51.1427854272444)", "lng": "-0.365545952885532"}, "amenity": "restaurant", "osm_id": 59276138, "type": "way"}, "307642219": {"microbrewery": "yes", "name": "Marble Arch Inn", "point": {"lat": "53.488266594737)", "lng": "-2.23227639968926"}, "amenity": "pub", "osm_id": 307642219, "type": "node"}, "58647250": {"microbrewery": "yes", "name": "The Famous Railway Tavern", "point": {"lat": "51.8097967952128)", "lng": "1.02090468433876"}, "amenity": "pub", "osm_id": 58647250, "type": "way"}, "1400101523": {"microbrewery": "yes", "name": "Lovibonds' Brewery Shop and Tasting Room", "point": {"lat": "51.5367007947756)", "lng": "-0.905307199873982"}, "amenity": "pub", "osm_id": 1400101523, "type": "node"}, "538599028": {"microbrewery": "yes", "name": "The New Delight Inn", "point": {"lat": "53.7501604947332)", "lng": "-2.05871239971343"}, "amenity": "pub", "osm_id": 538599028, "type": "node"}, "137111669": {"microbrewery": "yes", "name": "The Slaughterhouse Brewery", "point": {"lat": "52.2879780182319)", "lng": "-1.5626622414492"}, "url": "http://www.slaughterhousebrewery.com/", "osm_id": 137111669, "type": "way"}, "83808507": {"website": "http://www.johnthompsoninn.com/", "microbrewery": "yes", "name": "The John Thompson Inn", "point": {"lat": "52.8383411548933)", "lng": "-1.47758561440153"}, "amenity": "pub", "osm_id": 83808507, "type": "way"}, "336750461": {"microbrewery": "yes", "name": "The Speedwell Inn", "point": {"lat": "53.2694251947404)", "lng": "-1.34368339981296"}, "amenity": "pub", "osm_id": 336750461, "type": "node"}, "60706389": {"microbrewery": "yes", "name": "The Flower Pot", "point": {"lat": "52.9261675947463)", "lng": "-1.47949399979406"}, "amenity": "pub", "osm_id": 60706389, "type": "node"}}